{"fetched_at":"2026-07-13T07:47:49.217Z","source":"https://celestrak.org/NORAD/elements/gp.php?GROUP=globalstar&FORMAT=JSON","constellation":"globalstar","records":[{"OBJECT_NAME":"GLOBALSTAR M080","OBJECT_ID":"2011-080B","EPOCH":"2026-07-12T12:05:24.637632","CLASSIFICATION_TYPE":"U","MEAN_MOTION":12.62257343,"ECCENTRICITY":0.00003289,"INCLINATION":52.0063,"RA_OF_ASC_NODE":301.9378,"ARG_OF_PERICENTER":82.4207,"MEAN_ANOMALY":358.7321,"EPHEMERIS_TYPE":0,"NORAD_CAT_ID":38041,"ELEMENT_SET_NO":999,"REV_AT_EPOCH":67208,"BSTAR":0.000089221834,"MEAN_MOTION_DOT":-8.8e-7,"MEAN_MOTION_DDOT":0},{"OBJECT_NAME":"GLOBALSTAR M082","OBJECT_ID":"2011-080C","EPOCH":"2026-07-12T14:47:53.500416","CLASSIFICATION_TYPE":"U","MEAN_MOTION":12.62264067,"ECCENTRICITY":0.0000209,"INCLINATION":52.0062,"RA_OF_ASC_NODE":257.0989,"ARG_OF_PERICENTER":103.7899,"MEAN_ANOMALY":60.2174,"EPHEMERIS_TYPE":0,"NORAD_CAT_ID":38042,"ELEMENT_SET_NO":999,"REV_AT_EPOCH":67280,"BSTAR":0.0001678,"MEAN_MOTION_DOT":-7.4e-7,"MEAN_MOTION_DDOT":0},{"OBJECT_NAME":"GLOBALSTAR M092","OBJECT_ID":"2011-080D","EPOCH":"2026-07-12T17:38:34.737792","CLASSIFICATION_TYPE":"U","MEAN_MOTION":12.62267706,"ECCENTRICITY":0.0000815,"INCLINATION":52.0105,"RA_OF_ASC_NODE":347.1348,"ARG_OF_PERICENTER":99.7659,"MEAN_ANOMALY":2.4655,"EPHEMERIS_TYPE":0,"NORAD_CAT_ID":38043,"ELEMENT_SET_NO":999,"REV_AT_EPOCH":67127,"BSTAR":0.000062462,"MEAN_MOTION_DOT":-9.3e-7,"MEAN_MOTION_DDOT":0},{"OBJECT_NAME":"GLOBALSTAR M090","OBJECT_ID":"2011-080E","EPOCH":"2026-07-10T05:44:52.489824","CLASSIFICATION_TYPE":"U","MEAN_MOTION":12.62253056,"ECCENTRICITY":0.00004514,"INCLINATION":52.0114,"RA_OF_ASC_NODE":258.2983,"ARG_OF_PERICENTER":107.2704,"MEAN_ANOMALY":288.2798,"EPHEMERIS_TYPE":0,"NORAD_CAT_ID":38044,"ELEMENT_SET_NO":999,"REV_AT_EPOCH":67262,"BSTAR":0.00012811834,"MEAN_MOTION_DOT":-8.1e-7,"MEAN_MOTION_DDOT":0},{"OBJECT_NAME":"GLOBALSTAR M086","OBJECT_ID":"2011-080F","EPOCH":"2026-07-12T03:46:27.289056","CLASSIFICATION_TYPE":"U","MEAN_MOTION":12.622877,"ECCENTRICITY":0.00015661,"INCLINATION":51.9881,"RA_OF_ASC_NODE":252.3489,"ARG_OF_PERICENTER":107.5659,"MEAN_ANOMALY":270.372,"EPHEMERIS_TYPE":0,"NORAD_CAT_ID":38045,"ELEMENT_SET_NO":999,"REV_AT_EPOCH":67281,"BSTAR":0.00013496851,"MEAN_MOTION_DOT":-8e-7,"MEAN_MOTION_DDOT":0},{"OBJECT_NAME":"GLOBALSTAR M097","OBJECT_ID":"2013-005A","EPOCH":"2026-07-11T22:44:24.907200","CLASSIFICATION_TYPE":"U","MEAN_MOTION":12.62271437,"ECCENTRICITY":0.0000344,"INCLINATION":52.0024,"RA_OF_ASC_NODE":167.9625,"ARG_OF_PERICENTER":35.7259,"MEAN_ANOMALY":324.3631,"EPHEMERIS_TYPE":0,"NORAD_CAT_ID":39072,"ELEMENT_SET_NO":999,"REV_AT_EPOCH":62003,"BSTAR":-0.000011064,"MEAN_MOTION_DOT":-0.00000106,"MEAN_MOTION_DDOT":0},{"OBJECT_NAME":"GLOBALSTAR M093","OBJECT_ID":"2013-005B","EPOCH":"2026-07-12T07:35:58.621344","CLASSIFICATION_TYPE":"U","MEAN_MOTION":12.62266352,"ECCENTRICITY":0.00005772,"INCLINATION":52.0086,"RA_OF_ASC_NODE":160.1951,"ARG_OF_PERICENTER":39.7706,"MEAN_ANOMALY":320.3203,"EPHEMERIS_TYPE":0,"NORAD_CAT_ID":39073,"ELEMENT_SET_NO":999,"REV_AT_EPOCH":62003,"BSTAR":-0.00001360888,"MEAN_MOTION_DOT":-0.00000106,"MEAN_MOTION_DDOT":0},{"OBJECT_NAME":"GLOBALSTAR M094","OBJECT_ID":"2013-005C","EPOCH":"2026-07-12T18:59:54.879360","CLASSIFICATION_TYPE":"U","MEAN_MOTION":12.62264076,"ECCENTRICITY":0.000095,"INCLINATION":51.9963,"RA_OF_ASC_NODE":72.8414,"ARG_OF_PERICENTER":60.0129,"MEAN_ANOMALY":300.0832,"EPHEMERIS_TYPE":0,"NORAD_CAT_ID":39074,"ELEMENT_SET_NO":999,"REV_AT_EPOCH":62170,"BSTAR":-0.00012471,"MEAN_MOTION_DOT":-0.00000126,"MEAN_MOTION_DDOT":0},{"OBJECT_NAME":"GLOBALSTAR M096","OBJECT_ID":"2013-005D","EPOCH":"2026-07-12T19:19:23.765952","CLASSIFICATION_TYPE":"U","MEAN_MOTION":12.62265656,"ECCENTRICITY":0.0000686,"INCLINATION":52.0065,"RA_OF_ASC_NODE":121.6211,"ARG_OF_PERICENTER":36.2149,"MEAN_ANOMALY":323.8764,"EPHEMERIS_TYPE":0,"NORAD_CAT_ID":39075,"ELEMENT_SET_NO":999,"REV_AT_EPOCH":62062,"BSTAR":-0.00009527,"MEAN_MOTION_DOT":-0.00000121,"MEAN_MOTION_DDOT":0},{"OBJECT_NAME":"GLOBALSTAR M078","OBJECT_ID":"2013-005E","EPOCH":"2026-07-12T01:34:27.467616","CLASSIFICATION_TYPE":"U","MEAN_MOTION":12.62260125,"ECCENTRICITY":0.00007584,"INCLINATION":51.9843,"RA_OF_ASC_NODE":207.849,"ARG_OF_PERICENTER":328.5209,"MEAN_ANOMALY":31.5612,"EPHEMERIS_TYPE":0,"NORAD_CAT_ID":39076,"ELEMENT_SET_NO":999,"REV_AT_EPOCH":61915,"BSTAR":0.00011341567,"MEAN_MOTION_DOT":-8.3e-7,"MEAN_MOTION_DDOT":0},{"OBJECT_NAME":"GLOBALSTAR M095","OBJECT_ID":"2013-005F","EPOCH":"2026-07-12T09:48:59.292576","CLASSIFICATION_TYPE":"U","MEAN_MOTION":12.62264177,"ECCENTRICITY":0.00003526,"INCLINATION":52.0054,"RA_OF_ASC_NODE":204.4426,"ARG_OF_PERICENTER":10.4758,"MEAN_ANOMALY":349.6116,"EPHEMERIS_TYPE":0,"NORAD_CAT_ID":39077,"ELEMENT_SET_NO":999,"REV_AT_EPOCH":61905,"BSTAR":0.00012838796,"MEAN_MOTION_DOT":-8.1e-7,"MEAN_MOTION_DDOT":0},{"OBJECT_NAME":"GLOBALSTAR M087","OBJECT_ID":"2022-064A","EPOCH":"2026-07-12T13:55:56.188416","CLASSIFICATION_TYPE":"U","MEAN_MOTION":12.62269324,"ECCENTRICITY":0.0000929,"INCLINATION":52.0015,"RA_OF_ASC_NODE":345.1442,"ARG_OF_PERICENTER":82.3508,"MEAN_ANOMALY":277.7464,"EPHEMERIS_TYPE":0,"NORAD_CAT_ID":52888,"ELEMENT_SET_NO":999,"REV_AT_EPOCH":19434,"BSTAR":0.000003152,"MEAN_MOTION_DOT":-0.00000103,"MEAN_MOTION_DDOT":0}]}
